STARLINK-36852          
1 67933U 26037B   26062.58336806 -.01355793  55680-3 -29446-2 0  9990
2 67933  43.0004 236.3747 0001249 264.2220 319.2231 15.97460287  2212
STARLINK-36861          
1 67934U 26037C   26062.58336806 -.01356323  55799-3 -29234-2 0  9997
2 67934  43.0003 236.3701 0001361 268.5302 316.8494 15.97597259  2219
STARLINK-36860          
1 67935U 26037D   26062.58336806 -.01365707  56593-3 -29201-2 0  9991
2 67935  43.0003 236.3654 0001512 272.0924 315.3019 15.97742292  2211
STARLINK-36848          
1 67936U 26037E   26062.58336806 -.01359471  56277-3 -28636-2 0  9993
2 67936  43.0003 236.3553 0001546 270.1059 321.0753 15.98009049  2211
STARLINK-36370          
1 67937U 26037F   26062.58336806 -.01357617  56061-3 -28804-2 0  9992
2 67937  43.0005 236.3601 0001662 269.9900 319.4677 15.97879454  2218
STARLINK-36371          
1 67938U 26037G   26062.58336806 -.01353827  55918-3 -28331-2 0  9997
2 67938  43.0003 236.3511 0001542 270.2563 322.4725 15.98125376  2210
STARLINK-36246          
1 67939U 26037H   26062.58336806 -.01345738  55373-3 -27979-2 0  9992
2 67939  43.0004 236.3476 0001674 270.5425 323.7249 15.98239336  2125
STARLINK-36907          
1 67940U 26037J   26062.58336806 -.01338137  55021-3 -27232-2 0  9991
2 67940  43.0003 236.3336 0001614 266.6299 332.8743 15.98618727  2215
STARLINK-36927          
1 67941U 26037K   26062.58336806 -.01335065  54930-3 -26799-2 0  9994
2 67941  43.0003 236.3254 0001606 268.0662 334.7143 15.98861766  2214
STARLINK-36914          
1 67942U 26037L   26062.58336806 -.01352377  55964-3 -27881-2 0  9991
2 67942  43.0003 236.3419 0001583 269.3870 327.0234 15.98390757  2210
STARLINK-36851          
1 67943U 26037M   26062.58336806 -.01347602  55670-3 -27600-2 0  9990
2 67943  43.0005 236.3381 0001597 270.5352 327.4415 15.98507497  2211
STARLINK-36892          
1 67944U 26037N   26062.58336806 -.01339623  55204-3 -27075-2 0  9994
2 67944  43.0003 236.3302 0001505 271.0553 330.0740 15.98741681  2217
